$$SOE
2460154.500000000, A.D. 2023-Jul-29 00:00:00.0000, -4.961307664802135E+08, -2.690429752338346E+08, 4.681296622246436E+07,
2460161.500000000, A.D. 2023-Aug-05 00:00:00.0000, -4.963576108966303E+08, -2.766328706478397E+08, 4.573836760746923E+07,
2460168.500000000, A.D. 2023-Aug-12 00:00:00.0000, -4.964544519230508E+08, -2.841502998241118E+08, 4.465178404233027E+07,
2460175.500000000, A.D. 2023-Aug-19 00:00:00.0000, -4.964237562038744E+08, -2.915947199194642E+08, 4.355372437777267E+07,
2460182.500000000, A.D. 2023-Aug-26 00:00:00.0000, -4.962679138906934E+08, -2.989656181102911E+08, 4.244467984193556E+07,
2460189.500000000, A.D. 2023-Sep-02 00:00:00.0000, -4.959892419221674E+08, -3.062625091446308E+08, 4.132512496495096E+07,
2460196.500000000, A.D. 2023-Sep-09 00:00:00.0000, -4.955899871289372E+08, -3.134849331881522E+08, 4.019551843743943E+07,
2460203.500000000, A.D. 2023-Sep-16 00:00:00.0000, -4.950723290041796E+08, -3.206324540065586E+08, 3.905630388663580E+07,
2460210.500000000, A.D. 2023-Sep-23 00:00:00.0000, -4.944383817319067E+08, -3.277046571835234E+08, 3.790791055900465E+07,
2460217.500000000, A.D. 2023-Sep-30 00:00:00.0000, -4.936901958204455E+08, -3.347011471705522E+08, 3.675075404115766E+07,
2460224.500000000, A.D. 2023-Oct-07 00:00:00.0000, -4.928297617021005E+08, -3.416215437000164E+08, 3.558523719371597E+07,
2460231.500000000, A.D. 2023-Oct-14 00:00:00.0000, -4.918590142663354E+08, -3.484654808644357E+08, 3.441175093492916E+07,
2460238.500000000, A.D. 2023-Oct-21 00:00:00.0000, -4.907798351052114E+08, -3.552326072499581E+08, 3.323067471173732E+07,
2460245.500000000, A.D. 2023-Oct-28 00:00:00.0000, -4.895940539019628E+08, -3.619225848548099E+08, 3.204237697628616E+07,
2460252.500000000, A.D. 2023-Nov-04 00:00:00.0000, -4.883034502183765E+08, -3.685350875547853E+08, 3.084721572203550E+07,
2460259.500000000, A.D. 2023-Nov-11 00:00:00.0000, -4.869097555087602E+08, -3.750697997084154E+08, 2.964553901642849E+07,
2460266.500000000, A.D. 2023-Nov-18 00:00:00.0000, -4.854146551463106E+08, -3.815264149597079E+08, 2.843768550688185E+07,
2460273.500000000, A.D. 2023-Nov-25 00:00:00.0000, -4.838197903942279E+08, -3.879046352099791E+08, 2.722398489726871E+07,
2460280.500000000, A.D. 2023-Dec-02 00:00:00.0000, -4.821267602982883E+08, -3.942041697644776E+08, 2.600475839323318E+07,
2460287.500000000, A.D. 2023-Dec-09 00:00:00.0000, -4.803371234276173E+08, -4.004247347076067E+08, 2.478031910603458E+07,
2460294.500000000, A.D. 2023-Dec-16 00:00:00.0000, -4.784523991804092E+08, -4.065660524894898E+08, 2.355097239103939E+07,
2460301.500000000, A.D. 2023-Dec-23 00:00:00.0000, -4.764740683101642E+08, -4.126278510320631E+08, 2.231701614636211E+07,
2460308.500000000, A.D. 2023-Dec-30 00:00:00.0000, -4.744035740163239E+08, -4.186098613013076E+08, 2.107874128143781E+07,
2460315.500000000, A.D. 2024-Jan-06 00:00:00.0000, -4.722423253751131E+08, -4.245118157026689E+08, 1.983643232611871E+07,
2460322.500000000, A.D. 2024-Jan-13 00:00:00.0000, -4.699916999414138E+08, -4.303334491034446E+08, 1.859036774246022E+07,
2460329.500000000, A.D. 2024-Jan-20 00:00:00.0000, -4.676530443016090E+08, -4.360744993942598E+08, 1.734082007983214E+07,
2460336.500000000, A.D. 2024-Jan-27 00:00:00.0000, -4.652276746088875E+08, -4.417347069339194E+08, 1.608805621343321E+07,
2460343.500000000, A.D. 2024-Feb-03 00:00:00.0000, -4.627168775315291E+08, -4.473138138231660E+08, 1.483233762859085E+07,
2460350.500000000, A.D. 2024-Feb-10 00:00:00.0000, -4.601219113388502E+08, -4.528115632960854E+08, 1.357392070218527E+07,
2460357.500000000, A.D. 2024-Feb-17 00:00:00.0000, -4.574440069883555E+08, -4.582276992194333E+08, 1.231305696969789E+07,
2460364.500000000, A.D. 2024-Feb-24 00:00:00.0000, -4.546843691806762E+08, -4.635619656835418E+08, 1.104999337637284E+07,
2460371.500000000, A.D. 2024-Mar-02 00:00:00.0000, -4.518441773555679E+08, -4.688141067157846E+08, 9.784972507725775E+06,
2460378.500000000, A.D. 2024-Mar-09 00:00:00.0000, -4.489245864927101E+08, -4.739838661778191E+08, 8.518232782096833E+06,
2460385.500000000, A.D. 2024-Mar-16 00:00:00.0000, -4.459267273243374E+08, -4.790709876476144E+08, 7.250008585665047E+06,
2460392.500000000, A.D. 2024-Mar-23 00:00:00.0000, -4.428517060653303E+08, -4.840752131754195E+08, 5.980530450585842E+06,
2460399.500000000, A.D. 2024-Mar-30 00:00:00.0000, -4.397006059035414E+08, -4.889962809386950E+08, 4.710025480123967E+06,
2460406.500000000, A.D. 2024-Apr-06 00:00:00.0000, -4.364744899958417E+08, -4.938339251622690E+08, 3.438717722546190E+06,
2460413.500000000, A.D. 2024-Apr-13 00:00:00.0000, -4.331744024205623E+08, -4.985878774662900E+08, 2.166828236872852E+06,
2460420.500000000, A.D. 2024-Apr-20 00:00:00.0000, -4.298013680402848E+08, -5.032578669640090E+08, 8.945751570413113E+05,
2460427.500000000, A.D. 2024-Apr-27 00:00:00.0000, -4.263563927933837E+08, -5.078436196692768E+08, -3.778261517792344E+05,
2460434.500000000, A.D. 2024-May-04 00:00:00.0000, -4.228404643275533E+08, -5.123448579157468E+08, -1.650162909813643E+06,
2460441.500000000, A.D. 2024-May-11 00:00:00.0000, -4.192545527380706E+08, -5.167612998883421E+08, -2.922224741963387E+06,
2460448.500000000, A.D. 2024-May-18 00:00:00.0000, -4.155996113299466E+08, -5.210926592442419E+08, -4.193803505004913E+06,
2460455.500000000, A.D. 2024-May-25 00:00:00.0000, -4.118765773804138E+08, -5.253386448294194E+08, -5.464693125026882E+06,
2460462.500000000, A.D. 2024-Jun-01 00:00:00.0000, -4.080863728430715E+08, -5.294989605471178E+08, -6.734689454733908E+06,
2460469.500000000, A.D. 2024-Jun-08 00:00:00.0000, -4.042299047484792E+08, -5.335733054002385E+08, -8.003590174518913E+06,
2460476.500000000, A.D. 2024-Jun-15 00:00:00.0000, -4.003080649028236E+08, -5.375613731616043E+08, -9.271194728828728E+06,
2460483.500000000, A.D. 2024-Jun-22 00:00:00.0000, -3.963217298909245E+08, -5.414628504959769E+08, -1.053730410901874E+07,
2460490.500000000, A.D. 2024-Jun-29 00:00:00.0000, -3.922717635060537E+08, -5.452774153537152E+08, -1.180172043637520E+07,
2460497.500000000, A.D. 2024-Jul-06 00:00:00.0000, -3.881590189625130E+08, -5.490047381067132E+08, -1.306424678940269E+07,
2460504.500000000, A.D. 2024-Jul-13 00:00:00.0000, -3.839843389429891E+08, -5.526444826021671E+08, -1.432468722297597E+07,
2460511.500000000, A.D. 2024-Jul-20 00:00:00.0000, -3.797485554675130E+08, -5.561963059847910E+08, -1.558284670299771E+07,
2460518.500000000, A.D. 2024-Jul-27 00:00:00.0000, -3.754524902409161E+08, -5.596598582461362E+08, -1.683853097454846E+07,
2460525.500000000, A.D. 2024-Aug-03 00:00:00.0000, -3.710969552066166E+08, -5.630347818752379E+08, -1.809154641904959E+07,
2460532.500000000, A.D. 2024-Aug-10 00:00:00.0000, -3.666827531417480E+08, -5.663207116144009E+08, -1.934169991594565E+07,
2460539.500000000, A.D. 2024-Aug-17 00:00:00.0000, -3.622106782471702E+08, -5.695172742977397E+08, -2.058879871146613E+07,
2460546.500000000, A.D. 2024-Aug-24 00:00:00.0000, -3.576815167054828E+08, -5.726240887939968E+08, -2.183265029887614E+07,
2460553.500000000, A.D. 2024-Aug-31 00:00:00.0000, -3.530960470924025E+08, -5.756407661142637E+08, -2.307306232589093E+07,
2460560.500000000, A.D. 2024-Sep-07 00:00:00.0000, -3.484550402769555E+08, -5.785669095572647E+08, -2.430984255249301E+07,
2460567.500000000, A.D. 2024-Sep-14 00:00:00.0000, -3.437592587260587E+08, -5.814021138952235E+08, -2.554279878559569E+07,
2460574.500000000, A.D. 2024-Sep-21 00:00:00.0000, -3.390094572428638E+08, -5.841459631865242E+08, -2.677173857072100E+07,
2460581.500000000, A.D. 2024-Sep-28 00:00:00.0000, -3.342063856265960E+08, -5.867980304419110E+08, -2.799646885971633E+07,
2460588.500000000, A.D. 2024-Oct-05 00:00:00.0000, -3.293507895846238E+08, -5.893578791422821E+08, -2.921679599093217E+07,
2460595.500000000, A.D. 2024-Oct-12 00:00:00.0000, -3.244434102581936E+08, -5.918250636278375E+08, -3.043252570516559E+07,
2460602.500000000, A.D. 2024-Oct-19 00:00:00.0000, -3.194849841136420E+08, -5.941991286290121E+08, -3.164346305876416E+07,
2460609.500000000, A.D. 2024-Oct-26 00:00:00.0000, -3.144762432322975E+08, -5.964796087400594E+08, -3.284941229624757E+07,
2460616.500000000, A.D. 2024-Nov-02 00:00:00.0000, -3.094179157425177E+08, -5.986660279830592E+08, -3.405017671798667E+07,
2460623.500000000, A.D. 2024-Nov-09 00:00:00.0000, -3.043107262980009E+08, -6.007578994409766E+08, -3.524555854989305E+07,
2460630.500000000, A.D. 2024-Nov-16 00:00:00.0000, -2.991553965772016E+08, -6.027547249588126E+08, -3.643535881723106E+07,
2460637.500000000, A.D. 2024-Nov-23 00:00:00.0000, -2.939526457576582E+08, -6.046559949620229E+08, -3.761937723066220E+07,
2460644.500000000, A.D. 2024-Nov-30 00:00:00.0000, -2.887031907577072E+08, -6.064611884341222E+08, -3.879741210681653E+07,
2460651.500000000, A.D. 2024-Dec-07 00:00:00.0000, -2.834077458269439E+08, -6.081697726321101E+08, -3.996926032715717E+07,
2460658.500000000, A.D. 2024-Dec-14 00:00:00.0000, -2.780670221748529E+08, -6.097812013149183E+08, -4.113471717158839E+07,
2460665.500000000, A.D. 2024-Dec-21 00:00:00.0000, -2.726817299568158E+08, -6.112949127247361E+08, -4.229357591513935E+07,
2460672.500000000, A.D. 2024-Dec-28 00:00:00.0000, -2.672525806456131E+08, -6.127103302879542E+08, -4.344562761074781E+07,
2460679.500000000, A.D. 2025-Jan-04 00:00:00.0000, -2.617802871920951E+08, -6.140268636593270E+08, -4.459066110177141E+07,
2460686.500000000, A.D. 2025-Jan-11 00:00:00.0000, -2.562655637973757E+08, -6.152439084490914E+08, -4.572846296105403E+07,
2460693.500000000, A.D. 2025-Jan-18 00:00:00.0000, -2.507091262144584E+08, -6.163608455511467E+08, -4.685881734700093E+07,
2460700.500000000, A.D. 2025-Jan-25 00:00:00.0000, -2.451116923366857E+08, -6.173770405461267E+08, -4.798150583722872E+07,
2460707.500000000, A.D. 2025-Feb-01 00:00:00.0000, -2.394739828843750E+08, -6.182918432088473E+08, -4.909630725909024E+07,
2460714.500000000, A.D. 2025-Feb-08 00:00:00.0000, -2.337967221321647E+08, -6.191045870999217E+08, -5.020299752030256E+07,
$$EOE